25286,IRIDIUM 63,1998,100.3,-1.0,-,86.39,Inactive,0,LEO,Kazakhstan,USA,Unknown,Unknown,Unknown,1 25286U 98021B   24082.60848574  .00000799  00000+0  27055-3 0  9997,2 25286  86.3926 271.2869 0001916  88.2545 271.8871 14.35643887359306,14.35643887,0.0001916,LEO
25319,IRIDIUM 69,1998,100.01,-1.0,-,86.39,Inactive,0,LEO,PRC,USA,Unknown,Unknown,Unknown,1 25319U 98026A   24082.58293103  .00000932  00000+0  29078-3 0  9994,2 25319  86.3928 285.9573 0004329  79.6623 280.5064 14.39840845358296,14.39840845,0.0004329,LEO
25320,IRIDIUM 71,1998,99.99,-1.0,-,86.39,Inactive,0,LEO,PRC,USA,Unknown,Unknown,Unknown,1 25320U 98026B   24082.60213946  .00000947  00000+0  29360-3 0  9996,2 25320  86.3920 280.7249 0003872 112.9264 247.2344 14.40166979358570,14.40166979,0.0003872,LEO
25344,IRIDIUM 73,1998,99.29,-1.0,-,86.44,Inactive,0,LEO,USA,USA,Unknown,Unknown,Unknown,1 25344U 98032C   24082.44655699  .00001385  00000+0  34996-3 0  9994,2 25344  86.4406 238.3229 0002687  87.9272 272.2240 14.50359349365056,14.50359349,0.0002687,LEO
25467,IRIDIUM 82,1998,95.52,-1.0,-,86.39,Inactive,0,LEO,USA,USA,Unknown,Unknown,Unknown,1 25467U 98051A   24082.73053995  .00015203  00000+0  80971-3 0  9992,2 25467  86.3854 326.7102 0134344 177.1887 183.0137 15.07529373355456,15.07529373,0.0134344,LEO
25527,IRIDIUM 2,1998,92.25,-1.0,-,85.52,Inactive,0,LEO,USA,USA,Unknown,Unknown,Unknown,1 25527U 98066A   24082.24371286  .00113640  00000+0  13434-2 0  9990,2 25527  85.5160 359.3098 0003033  70.6596 289.4996 15.60912380394252,15.6091238,0.0003033,LEO
25273,IRIDIUM 57,1998,100.34,-1.0,-,86.4,Inactive,0,LEO,USA,USA,Unknown,Unknown,Unknown,1 25273U 98019B   24082.76139805  .00000618  00000+0  20980-3 0  9997,2 25273  86.3996 334.3352 0002145  88.1066 272.0376 14.35124708360232,14.35124708,0.0002145,LEO
