<?xml version="1.0" encoding="UTF-8"?>
<ndm xmlns:xsi="http://www.w3.org/2001/XMLSchema-instance" xsi:noNamespaceSchemaLocation="https://sanaregistry.org/r/ndmxml_unqualified/ndmxml-2.0.0-master-2.0.xsd">
<omm id="CCSDS_OMM_VERS" version="2.0">
<header><CREATION_DATE/><ORIGINATOR/></header><body><segment><metadata><OBJECT_NAME>IRIDIUM 57 [-]</OBJECT_NAME><OBJECT_ID>1998-019B</OBJECT_ID><CENTER_NAME>EARTH</CENTER_NAME><REF_FRAME>TEME</REF_FRAME><TIME_SYSTEM>UTC</TIME_SYSTEM><MEAN_ELEMENT_THEORY>SGP4</MEAN_ELEMENT_THEORY></metadata><data><meanElements><EPOCH>2024-03-22T18:16:24.791520</EPOCH><MEAN_MOTION>14.35124708</MEAN_MOTION><ECCENTRICITY>.0002145</ECCENTRICITY><INCLINATION>86.3996</INCLINATION><RA_OF_ASC_NODE>334.3352</RA_OF_ASC_NODE><ARG_OF_PERICENTER>88.1066</ARG_OF_PERICENTER><MEAN_ANOMALY>272.0376</MEAN_ANOMALY></meanElements><tleParameters><EPHEMERIS_TYPE>0</EPHEMERIS_TYPE><CLASSIFICATION_TYPE>U</CLASSIFICATION_TYPE><NORAD_CAT_ID>25273</NORAD_CAT_ID><ELEMENT_SET_NO>999</ELEMENT_SET_NO><REV_AT_EPOCH>36023</REV_AT_EPOCH><BSTAR>.2098E-3</BSTAR><MEAN_MOTION_DOT>.618E-5</MEAN_MOTION_DOT><MEAN_MOTION_DDOT>0</MEAN_MOTION_DDOT></tleParameters></data></segment></body></omm>
<omm id="CCSDS_OMM_VERS" version="2.0">
<header><CREATION_DATE/><ORIGINATOR/></header><body><segment><metadata><OBJECT_NAME>IRIDIUM 63 [-]</OBJECT_NAME><OBJECT_ID>1998-021B</OBJECT_ID><CENTER_NAME>EARTH</CENTER_NAME><REF_FRAME>TEME</REF_FRAME><TIME_SYSTEM>UTC</TIME_SYSTEM><MEAN_ELEMENT_THEORY>SGP4</MEAN_ELEMENT_THEORY></metadata><data><meanElements><EPOCH>2024-03-22T14:36:13.167936</EPOCH><MEAN_MOTION>14.35643887</MEAN_MOTION><ECCENTRICITY>.0001916</ECCENTRICITY><INCLINATION>86.3926</INCLINATION><RA_OF_ASC_NODE>271.2869</RA_OF_ASC_NODE><ARG_OF_PERICENTER>88.2545</ARG_OF_PERICENTER><MEAN_ANOMALY>271.8871</MEAN_ANOMALY></meanElements><tleParameters><EPHEMERIS_TYPE>0</EPHEMERIS_TYPE><CLASSIFICATION_TYPE>U</CLASSIFICATION_TYPE><NORAD_CAT_ID>25286</NORAD_CAT_ID><ELEMENT_SET_NO>999</ELEMENT_SET_NO><REV_AT_EPOCH>35930</REV_AT_EPOCH><BSTAR>.27055E-3</BSTAR><MEAN_MOTION_DOT>.799E-5</MEAN_MOTION_DOT><MEAN_MOTION_DDOT>0</MEAN_MOTION_DDOT></tleParameters></data></segment></body></omm>
<omm id="CCSDS_OMM_VERS" version="2.0">
<header><CREATION_DATE/><ORIGINATOR/></header><body><segment><metadata><OBJECT_NAME>IRIDIUM 69 [-]</OBJECT_NAME><OBJECT_ID>1998-026A</OBJECT_ID><CENTER_NAME>EARTH</CENTER_NAME><REF_FRAME>TEME</REF_FRAME><TIME_SYSTEM>UTC</TIME_SYSTEM><MEAN_ELEMENT_THEORY>SGP4</MEAN_ELEMENT_THEORY></metadata><data><meanElements><EPOCH>2024-03-22T13:59:25.240992</EPOCH><MEAN_MOTION>14.39840845</MEAN_MOTION><ECCENTRICITY>.0004329</ECCENTRICITY><INCLINATION>86.3928</INCLINATION><RA_OF_ASC_NODE>285.9573</RA_OF_ASC_NODE><ARG_OF_PERICENTER>79.6623</ARG_OF_PERICENTER><MEAN_ANOMALY>280.5064</MEAN_ANOMALY></meanElements><tleParameters><EPHEMERIS_TYPE>0</EPHEMERIS_TYPE><CLASSIFICATION_TYPE>U</CLASSIFICATION_TYPE><NORAD_CAT_ID>25319</NORAD_CAT_ID><ELEMENT_SET_NO>999</ELEMENT_SET_NO><REV_AT_EPOCH>35829</REV_AT_EPOCH><BSTAR>.29078E-3</BSTAR><MEAN_MOTION_DOT>.932E-5</MEAN_MOTION_DOT><MEAN_MOTION_DDOT>0</MEAN_MOTION_DDOT></tleParameters></data></segment></body></omm>
<omm id="CCSDS_OMM_VERS" version="2.0">
<header><CREATION_DATE/><ORIGINATOR/></header><body><segment><metadata><OBJECT_NAME>IRIDIUM 71 [-]</OBJECT_NAME><OBJECT_ID>1998-026B</OBJECT_ID><CENTER_NAME>EARTH</CENTER_NAME><REF_FRAME>TEME</REF_FRAME><TIME_SYSTEM>UTC</TIME_SYSTEM><MEAN_ELEMENT_THEORY>SGP4</MEAN_ELEMENT_THEORY></metadata><data><meanElements><EPOCH>2024-03-22T14:27:04.849344</EPOCH><MEAN_MOTION>14.40166979</MEAN_MOTION><ECCENTRICITY>.0003872</ECCENTRICITY><INCLINATION>86.3920</INCLINATION><RA_OF_ASC_NODE>280.7249</RA_OF_ASC_NODE><ARG_OF_PERICENTER>112.9264</ARG_OF_PERICENTER><MEAN_ANOMALY>247.2344</MEAN_ANOMALY></meanElements><tleParameters><EPHEMERIS_TYPE>0</EPHEMERIS_TYPE><CLASSIFICATION_TYPE>U</CLASSIFICATION_TYPE><NORAD_CAT_ID>25320</NORAD_CAT_ID><ELEMENT_SET_NO>999</ELEMENT_SET_NO><REV_AT_EPOCH>35857</REV_AT_EPOCH><BSTAR>.2936E-3</BSTAR><MEAN_MOTION_DOT>.947E-5</MEAN_MOTION_DOT><MEAN_MOTION_DDOT>0</MEAN_MOTION_DDOT></tleParameters></data></segment></body></omm>
<omm id="CCSDS_OMM_VERS" version="2.0">
<header><CREATION_DATE/><ORIGINATOR/></header><body><segment><metadata><OBJECT_NAME>IRIDIUM 73 [-]</OBJECT_NAME><OBJECT_ID>1998-032C</OBJECT_ID><CENTER_NAME>EARTH</CENTER_NAME><REF_FRAME>TEME</REF_FRAME><TIME_SYSTEM>UTC</TIME_SYSTEM><MEAN_ELEMENT_THEORY>SGP4</MEAN_ELEMENT_THEORY></metadata><data><meanElements><EPOCH>2024-03-22T10:43:02.523936</EPOCH><MEAN_MOTION>14.50359349</MEAN_MOTION><ECCENTRICITY>.0002687</ECCENTRICITY><INCLINATION>86.4406</INCLINATION><RA_OF_ASC_NODE>238.3229</RA_OF_ASC_NODE><ARG_OF_PERICENTER>87.9272</ARG_OF_PERICENTER><MEAN_ANOMALY>272.2240</MEAN_ANOMALY></meanElements><tleParameters><EPHEMERIS_TYPE>0</EPHEMERIS_TYPE><CLASSIFICATION_TYPE>U</CLASSIFICATION_TYPE><NORAD_CAT_ID>25344</NORAD_CAT_ID><ELEMENT_SET_NO>999</ELEMENT_SET_NO><REV_AT_EPOCH>36505</REV_AT_EPOCH><BSTAR>.34996E-3</BSTAR><MEAN_MOTION_DOT>.1385E-4</MEAN_MOTION_DOT><MEAN_MOTION_DDOT>0</MEAN_MOTION_DDOT></tleParameters></data></segment></body></omm>
<omm id="CCSDS_OMM_VERS" version="2.0">
<header><CREATION_DATE/><ORIGINATOR/></header><body><segment><metadata><OBJECT_NAME>IRIDIUM 82 [-]</OBJECT_NAME><OBJECT_ID>1998-051A</OBJECT_ID><CENTER_NAME>EARTH</CENTER_NAME><REF_FRAME>TEME</REF_FRAME><TIME_SYSTEM>UTC</TIME_SYSTEM><MEAN_ELEMENT_THEORY>SGP4</MEAN_ELEMENT_THEORY></metadata><data><meanElements><EPOCH>2024-03-22T17:31:58.651680</EPOCH><MEAN_MOTION>15.07529373</MEAN_MOTION><ECCENTRICITY>.0134344</ECCENTRICITY><INCLINATION>86.3854</INCLINATION><RA_OF_ASC_NODE>326.7102</RA_OF_ASC_NODE><ARG_OF_PERICENTER>177.1887</ARG_OF_PERICENTER><MEAN_ANOMALY>183.0137</MEAN_ANOMALY></meanElements><tleParameters><EPHEMERIS_TYPE>0</EPHEMERIS_TYPE><CLASSIFICATION_TYPE>U</CLASSIFICATION_TYPE><NORAD_CAT_ID>25467</NORAD_CAT_ID><ELEMENT_SET_NO>999</ELEMENT_SET_NO><REV_AT_EPOCH>35545</REV_AT_EPOCH><BSTAR>.80971E-3</BSTAR><MEAN_MOTION_DOT>.15203E-3</MEAN_MOTION_DOT><MEAN_MOTION_DDOT>0</MEAN_MOTION_DDOT></tleParameters></data></segment></body></omm>
<omm id="CCSDS_OMM_VERS" version="2.0">
<header><CREATION_DATE/><ORIGINATOR/></header><body><segment><metadata><OBJECT_NAME>IRIDIUM 2 [-]</OBJECT_NAME><OBJECT_ID>1998-066A</OBJECT_ID><CENTER_NAME>EARTH</CENTER_NAME><REF_FRAME>TEME</REF_FRAME><TIME_SYSTEM>UTC</TIME_SYSTEM><MEAN_ELEMENT_THEORY>SGP4</MEAN_ELEMENT_THEORY></metadata><data><meanElements><EPOCH>2024-03-22T05:50:56.791104</EPOCH><MEAN_MOTION>15.60912380</MEAN_MOTION><ECCENTRICITY>.0003033</ECCENTRICITY><INCLINATION>85.5160</INCLINATION><RA_OF_ASC_NODE>359.3098</RA_OF_ASC_NODE><ARG_OF_PERICENTER>70.6596</ARG_OF_PERICENTER><MEAN_ANOMALY>289.4996</MEAN_ANOMALY></meanElements><tleParameters><EPHEMERIS_TYPE>0</EPHEMERIS_TYPE><CLASSIFICATION_TYPE>U</CLASSIFICATION_TYPE><NORAD_CAT_ID>25527</NORAD_CAT_ID><ELEMENT_SET_NO>999</ELEMENT_SET_NO><REV_AT_EPOCH>39425</REV_AT_EPOCH><BSTAR>.13434E-2</BSTAR><MEAN_MOTION_DOT>.11364E-2</MEAN_MOTION_DOT><MEAN_MOTION_DDOT>0</MEAN_MOTION_DDOT></tleParameters></data></segment></body></omm>
</ndm>
